NORAD_CAT_ID,OBJECT_NAME,OBJECT_TYPE,EPOCH,MEAN_MOTION,ECCENTRICITY,INCLINATION,RA_OF_ASC_NODE,ARG_OF_PERICENTER,MEAN_ANOMALY,BSTAR,MEAN_MOTION_DOT,MEAN_MOTION_DDOT,TLE_LINE0,TLE_LINE1,TLE_LINE2,SEMIMAJOR_AXIS,PERIOD,APOGEE,PERIGEE,DECAYED
52875.0,STARLINK-4193,PAYLOAD,2022-07-04 22:00:00,15.7324451,0.0001622,53.2149,318.7663,32.165,152.3552,-0.00021619,-0.00030909,0.0,0 STARLINK-4193,1 52875U 22062AX  22185.91667824 -.00030909  00000-0 -21619-3 0  9995,2 52875  53.2149 318.7663 0001622  32.1650 152.3552 15.73244510  1304,6727.768,91.531,350.725,348.542,0.0
52875.0,STARLINK-4193,PAYLOAD,2022-07-05 14:00:01,15.73278286,0.0001457,53.2152,315.4668,28.3193,334.1115,-0.00099442,-0.00138374,0.0,0 STARLINK-4193,1 52875U 22062AX  22186.58334491 -.00138374  00000-0 -99442-3 0  9994,2 52875  53.2152 315.4668 0001457  28.3193 334.1115 15.73278286  3340,6727.672,91.529,350.517,348.557,0.0
52875.0,STARLINK-4193,PAYLOAD,2022-07-05 22:00:00,15.73169231,0.0001613,53.2151,313.8175,25.4111,65.9865,4.5521e-06,1.8e-07,0.0,0 STARLINK-4193,1 52875U 22062AX  22186.91667824  .00000018  00000-0  45521-5 0  9992,2 52875  53.2151 313.8175 0001613  25.4111  65.9865 15.73169231  1300,6727.983,91.535,350.93300000000005,348.76300000000015,0.0
52875.0,STARLINK-4193,PAYLOAD,2022-07-06 06:00:00,15.73137174,0.0001474,53.2152,312.166,32.8696,147.4033,0.00051151,0.00071588,0.0,0 STARLINK-4193,1 52875U 22062AX  22187.25001157  .00071588  00000-0  51151-3 0  9995,2 52875  53.2152 312.1660 0001474  32.8696 147.4033 15.73137174  3448,6728.074000000001,91.537,350.931,348.9480000000001,0.0
52875.0,STARLINK-4193,PAYLOAD,2022-07-06 14:00:01,15.73187454,0.0001730999999999,53.2154,310.5185,31.3528,237.8042,4.281e-05,5.388e-05,0.0,0 STARLINK-4193,1 52875U 22062AX  22187.58334491  .00005388  00000-0  42810-4 0  9999,2 52875  53.2154 310.5185 0001731  31.3528 237.8042 15.73187454  1301,6727.931,91.534,350.961,348.631,0.0
52875.0,STARLINK-4193,PAYLOAD,2022-07-06 22:00:00,15.73267091,0.0001764999999999,53.2157,308.8692,25.9445,332.1117,-0.0010995999999999,-0.00152623,0.0,0 STARLINK-4193,1 52875U 22062AX  22187.91667824 -.00152623  00000-0 -10996-2 0  9990,2 52875  53.2157 308.8692 0001765  25.9445 332.1117 15.73267091  3558,6727.704000000002,91.529,350.756,348.381,0.0
52875.0,STARLINK-4193,PAYLOAD,2022-07-07 04:06:26,15.73223268,0.0001665999999999,53.2152,307.6084,30.8431,329.2687,0.00023701,0.00032806,0.0,0 STARLINK-4193,1 52875U 22062AX  22188.17114500  .00032806  00000-0  23701-3 0  9994,2 52875  53.2152 307.6084 0001666  30.8431 329.2687 15.73223268  3596,6727.829000000002,91.532,350.815,348.5730000000001,0.0
52875.0,STARLINK-4193,PAYLOAD,2022-07-07 14:00:01,15.73212281,0.0001858,53.2148,305.5695,33.8458,142.1693,-0.00014796,-0.00021346,0.0,0 STARLINK-4193,1 52875U 22062AX  22188.58334491 -.00021346  00000-0 -14796-3 0  9995,2 52875  53.2148 305.5695 0001858  33.8458 142.1693 15.73212281  3650,6727.86,91.532,350.975,348.475,0.0
52875.0,STARLINK-4193,PAYLOAD,2022-07-07 20:52:42,15.73252935,0.0001931,53.2151,304.15,32.4624,327.6514,0.00021928,0.00030336,0.0,0 STARLINK-4193,1 52875U 22062AX  22188.86993900  .00030336  00000-0  21928-3 0  9994,2 52875  53.2151 304.1500 0001931  32.4624 327.6514 15.73252935  3210,6727.744000000002,91.53,350.908,348.31,0.0
52875.0,STARLINK-4193,PAYLOAD,2022-07-08 06:00:02,15.73193257,0.0001737,53.2152,302.2681,29.9423,324.0564,0.00065094,0.00091713,0.0,0 STARLINK-4193,1 52875U 22062AX  22189.25002315  .00091713  00000-0  65094-3 0  9997,2 52875  53.2152 302.2681 0001737  29.9423 324.0564 15.73193257  3769,6727.9140000000025,91.534,350.9480000000001,348.611,0.0
52875.0,STARLINK-4193,PAYLOAD,2022-07-08 13:38:58,15.73270873,0.0001951,53.215,300.6916,31.9983,328.1156,0.00029123,0.00040575,0.0,0 STARLINK-4193,1 52875U 22062AX  22189.56872917  .00040575  00000-0  29123-3 0  9997,2 52875  53.2150 300.6916 0001951  31.9983 328.1156 15.73270873  3326,6727.693,91.529,350.871,348.246,0.0
52875.0,STARLINK-4193,PAYLOAD,2022-07-08 14:00:01,15.73313136,0.0001976,53.2151,300.6204,24.1841,58.7573,-0.00035146,-0.00049898,0.0,0 STARLINK-4193,1 52875U 22062AX  22189.58334491 -.00049898  00000-0 -35146-3 0  9990,2 52875  53.2151 300.6204 0001976  24.1841  58.7573 15.73313136  3814,6727.573,91.527,350.767,348.108,0.0
52875.0,STARLINK-4193,PAYLOAD,2022-07-08 22:00:01,15.73330415,0.0001994,53.2147,298.9701,21.6175,150.4214,-0.00064753,-0.00091034,0.0,0 STARLINK-4193,1 52875U 22062AX  22189.91668981 -.00091034  00000-0 -64753-3 0  9996,2 52875  53.2147 298.9701 0001994  21.6175 150.4214 15.73330415  1305,6727.523,91.526,350.73,348.047,0.0
52875.0,STARLINK-4193,PAYLOAD,2022-07-09 06:00:00,15.73230789,0.0001773,53.2149,297.3189,27.5438,233.3973,-0.0011277999999999,-0.00156213,0.0,0 STARLINK-4193,1 52875U 22062AX  22190.25001157 -.00156213  00000-0 -11278-2 0  9995,2 52875  53.2149 297.3189 0001773  27.5438 233.3973 15.73230789  3928,6727.807,91.531,350.865,348.48,0.0
52875.0,STARLINK-4193,PAYLOAD,2022-07-09 14:00:01,15.73090224,0.0002024,53.215,295.6714,26.2452,323.5951,-0.00089864,-0.00124322,0.0,0 STARLINK-4193,1 52875U 22062AX  22190.58334491 -.00124322  00000-0 -89864-3 0  9994,2 52875  53.2150 295.6714 0002024  26.2452 323.5951 15.73090224  1303,6728.208000000001,91.54,351.435,348.711,0.0
52875.0,STARLINK-4193,PAYLOAD,2022-07-09 20:00:01,15.72992995,0.0002147,53.215,294.4345,23.2375,303.1756,0.00049895,0.00069368,0.0,0 STARLINK-4193,1 52875U 22062AX  22190.83334491  .00069368  00000-0  49895-3 0  9998,2 52875  53.2150 294.4345 0002147  23.2375 303.1756 15.72992995  1309,6728.485,91.545,351.795,348.906,0.0
52875.0,STARLINK-4193,PAYLOAD,2022-07-10 06:00:00,15.73054924,0.0001978,53.2156,292.371,29.0143,138.2783,0.0013071,0.00185782,0.0,0 STARLINK-4193,1 52875U 22062AX  22191.25001157  .00185782  00000-0  13071-2 0  9990,2 52875  53.2156 292.3710 0001978  29.0143 138.2783 15.73054924  4072,6728.309,91.542,351.505,348.843,0.0
52875.0,STARLINK-4193,PAYLOAD,2022-07-10 14:00:01,15.73177646,0.0002279,53.2155,290.7238,24.6596,231.4653,0.00021229,0.0002925,0.0,0 STARLINK-4193,1 52875U 22062AX  22191.58334491  .00029250  00000-0  21229-3 0  9998,2 52875  53.2155 290.7238 0002279  24.6596 231.4653 15.73177646  1308,6727.959,91.534,351.357,348.291,0.0
52875.0,STARLINK-4193,PAYLOAD,2022-07-10 22:00:00,15.73235647,0.0002241,53.2151,289.0734,23.3461,321.7081,7.5454e-05,9.997e-05,0.0,0 STARLINK-4193,1 52875U 22062AX  22191.91667824  .00009997  00000-0  75454-4 0  9990,2 52875  53.2151 289.0734 0002241  23.3461 321.7081 15.73235647  4185,6727.794,91.531,351.166,348.151,0.0
52875.0,STARLINK-4193,PAYLOAD,2022-07-11 14:00:01,15.73306951,0.000233,53.2155,285.7753,22.4034,140.6269,-0.00027961,-0.00039863,0.0,0 STARLINK-4193,1 52875U 22062AX  22192.58334491 -.00039863  00000-0 -27961-3 0  9991,2 52875  53.2155 285.7753 0002330  22.4034 140.6269 15.73306951  1302,6727.59,91.527,351.023,347.88800000000015,0.0
52875.0,STARLINK-4193,PAYLOAD,2022-07-11 22:00:00,15.73292176,0.0002313,53.2154,284.1245,21.5455,230.5115,-0.00090463,-0.0012621,0.0,0 STARLINK-4193,1 52875U 22062AX  22192.91667824 -.00126210  00000-0 -90463-3 0  9997,2 52875  53.2154 284.1245 0002313  21.5455 230.5115 15.73292176  1300,6727.632,91.528,351.05300000000005,347.941,0.0
52875.0,STARLINK-4193,PAYLOAD,2022-07-12 06:00:00,15.73238489,0.0002253,53.2159,282.4737,24.4987,316.5413,-0.00020101,-0.00028785,0.0,0 STARLINK-4193,1 52875U 22062AX  22193.25001157 -.00028785  00000-0 -20101-3 0  9996,2 52875  53.2159 282.4737 0002253  24.4987 316.5413 15.73238489  4392,6727.785,91.531,351.166,348.135,0.0
52875.0,STARLINK-4193,PAYLOAD,2022-07-12 14:00:01,15.73194494,0.0002516,53.2158,280.8264,20.0015,50.0246,0.00044488,0.00062271,0.0,0 STARLINK-4193,1 52875U 22062AX  22193.58334491  .00062271  00000-0  44488-3 0  9992,2 52875  53.2158 280.8264 0002516  20.0015  50.0246 15.73194494  1303,6727.911,91.534,351.469,348.083,0.0
52875.0,STARLINK-4193,PAYLOAD,2022-07-12 22:00:00,15.73300659,0.0002432,53.2153,279.1757,17.5351,141.4465,-0.00056049,-0.000789,0.0,0 STARLINK-4193,1 52875U 22062AX  22193.91667824 -.00078900  00000-0 -56049-3 0  9992,2 52875  53.2153 279.1757 0002432  17.5351 141.4465 15.73300659  4490,6727.608,91.527,351.1090000000001,347.837,0.0
52875.0,STARLINK-4193,PAYLOAD,2022-07-13 14:00:01,15.73197932,0.0002594,53.2153,275.8781,18.8488,318.0958,-0.00061813,-0.00086495,0.0,0 STARLINK-4193,1 52875U 22062AX  22194.58334491 -.00086495  00000-0 -61813-3 0  9990,2 52875  53.2153 275.8781 0002594  18.8488 318.0958 15.73197932  1308,6727.901,91.533,351.511,348.021,0.0
52875.0,STARLINK-4193,PAYLOAD,2022-07-13 22:00:00,15.73129718,0.0002563999999999,53.2152,274.2274,20.5886,45.2367,3.86e-06,-8.1e-07,0.0,0 STARLINK-4193,1 52875U 22062AX  22194.91667824 -.00000081  00000-0  38600-5 0  9992,2 52875  53.2152 274.2274 0002564  20.5886  45.2367 15.73129718  1306,6728.096,91.537,351.686,348.235,0.0
52875.0,STARLINK-4193,PAYLOAD,2022-07-14 08:00:01,15.73159793,0.0002607,53.2154,272.1656,23.5133,243.3542,0.0001359,0.00018463,0.0,0 STARLINK-4193,1 52875U 22062AX  22195.33334491  .00018463  00000-0  13590-3 0  9991,2 52875  53.2154 272.1656 0002607  23.5133 243.3542 15.73159793  4726,6728.01,91.536,351.629,348.121,0.0
52875.0,STARLINK-4193,PAYLOAD,2022-07-14 14:00:01,15.731509,0.0002884,53.2153,270.9301,22.3247,221.2108,0.00046353,0.00064808,0.0,0 STARLINK-4193,1 52875U 22062AX  22195.58334491  .00064808  00000-0  46353-3 0  9995,2 52875  53.2153 270.9301 0002884  22.3247 221.2108 15.73150900  1303,6728.035,91.536,351.841,347.96,0.0
52875.0,STARLINK-4193,PAYLOAD,2022-07-14 22:00:00,15.73234255,0.0002694,53.2147,269.2791,20.9255,311.5099,-0.00034362,-0.00048649,0.0,0 STARLINK-4193,1 52875U 22062AX  22195.91667824 -.00048649  00000-0 -34362-3 0  9995,2 52875  53.2147 269.2791 0002694  20.9255 311.5099 15.73234255  1300,6727.7980000000025,91.531,351.475,347.85,0.0
